LIZZIESAT-2 (LS-2)      
1 62383U 24247G   26068.49140277  .00009388  00000+0  34517-3 0  9997
2 62383  44.9909 117.0823 0004092 327.5136  32.5495 15.28222796 67716
STARLINK-35277          
1 65832U 25221K   26068.49322054  .00025322  00000+0  86521-3 0  9995
2 65832  53.1593  89.2337 0001352  79.5609 280.5544 15.30160899 26054
